{"type": "FeatureCollection", "features": [ {"type": "Feature", "properties": {"norad_id": 44804, "name": "CARTOSAT-3", "group": "resource", "lat": -69.70871034712252, "lon": -145.57850279395632, "alt_km": 524.6377028035167, "timestamp": "2025-12-21T16:47:54.386641+00:00", "meta": {"OBJECT_NAME": "CARTOSAT-3", "OBJECT_ID": "2019-081A", "EPOCH": "2025-12-21T12:32:07.985760", "MEAN_MOTION": 15.19222409, "ECCENTRICITY": 0.0013838, "INCLINATION": 97.4573, "RA_OF_ASC_NODE": 54.9946, "ARG_OF_PERICENTER": 55.5336, "MEAN_ANOMALY": 304.7204, "EPHEMERIS_TYPE": 0, "CLASSIFICATION_TYPE": "U", "NORAD_CAT_ID": 44804, "ELEMENT_SET_NO": 999, "REV_AT_EPOCH": 33649, "BSTAR": 0.00029376, "MEAN_MOTION_DOT": 6.134e-05, "MEAN_MOTION_DDOT": 0}, "tle": {"line1": "1 44804U 19081A   25355.52231465  .00006134  00000+0  29376-3 0  9990", "line2": "2 44804  97.4573  54.9946 0013838  55.5336 304.7204 15.19222409336494"}}, "geometry": {"type": "Point", "coordinates": [-145.57850279395632, -69.70871034712252]}}, {"type": "Feature", "properties": {"norad_id": 44819, "name": "GAOFEN-12 01", "group": "resource", "lat": -14.04439098945503, "lon": 179.77757229438325, "alt_km": 630.5409397949552, "timestamp": "2025-12-21T16:47:54.386651+00:00", "meta": {"OBJECT_NAME": "GAOFEN-12 01", "OBJECT_ID": "2019-082A", "EPOCH": "2025-12-21T12:40:51.364128", "MEAN_MOTION": 14.80666922, "ECCENTRICITY": 0.0001908, "INCLINATION": 97.8124, "RA_OF_ASC_NODE": 1.5787, "ARG_OF_PERICENTER": 191.0627, "MEAN_ANOMALY": 169.0544, "EPHEMERIS_TYPE": 0, "CLASSIFICATION_TYPE": "U", "NORAD_CAT_ID": 44819, "ELEMENT_SET_NO": 999, "REV_AT_EPOCH": 32780, "BSTAR": 5.7353e-05, "MEAN_MOTION_DOT": 3.9e-06, "MEAN_MOTION_DDOT": 0}, "tle": {"line1": "1 44819U 19082A   25355.52837227  .00000390  00000+0  57353-4 0  9990", "line2": "2 44819  97.8124   1.5787 0001908 191.0627 169.0544 14.80666922327804"}}, "geometry": {"type": "Point", "coordinates": [179.77757229438325, -14.04439098945503]}}, {"type": "Feature", "properties": {"norad_id": 44873, "name": "CSG-1", "group": "resource", "lat": -7.00527953420218, "lon": 177.86415954432894, "alt_km": 626.4664037695065, "timestamp": "2025-12-21T16:47:54.386661+00:00", "meta": {"OBJECT_NAME": "CSG-1", "OBJECT_ID": "2019-092A", "EPOCH": "2025-12-21T11:58:10.193376", "MEAN_MOTION": 14.82151247, "ECCENTRICITY": 0.000147, "INCLINATION": 97.8803, "RA_OF_ASC_NODE": 176.6909, "ARG_OF_PERICENTER": 85.6244, "MEAN_ANOMALY": 274.5137, "EPHEMERIS_TYPE": 0, "CLASSIFICATION_TYPE": "U", "NORAD_CAT_ID": 44873, "ELEMENT_SET_NO": 999, "REV_AT_EPOCH": 32515, "BSTAR": 6.5105e-05, "MEAN_MOTION_DOT": 4.66e-06, "MEAN_MOTION_DDOT": 0}, "tle": {"line1": "1 44873U 19092A   25355.49872909  .00000466  00000+0  65105-4 0  9991", "line2": "2 44873  97.8803 176.6909 0001470  85.6244 274.5137 14.82151247325152"}}, "geometry": {"type": "Point", "coordinates": [177.86415954432894, -7.00527953420218]}}, {"type": "Feature", "properties": {"norad_id": 46277, "name": "NEMO-HD", "group": "resource", "lat": -47.607435220680756, "lon": -133.2981124605752, "alt_km": 452.4418692288755, "timestamp": "2025-12-21T16:47:54.386671+00:00", "meta": {"OBJECT_NAME": "NEMO-HD", "OBJECT_ID": "2020-061F", "EPOCH": "2025-12-21T11:08:04.985376", "MEAN_MOTION": 15.40492237, "ECCENTRICITY": 0.0001327, "INCLINATION": 97.2199, "RA_OF_ASC_NODE": 54.4513, "ARG_OF_PERICENTER": 52.1859, "MEAN_ANOMALY": 307.9508, "EPHEMERIS_TYPE": 0, "CLASSIFICATION_TYPE": "U", "NORAD_CAT_ID": 46277, "ELEMENT_SET_NO": 999, "REV_AT_EPOCH": 29458, "BSTAR": 0.00020111, "MEAN_MOTION_DOT": 8.072e-05, "MEAN_MOTION_DDOT": 0}, "tle": {"line1": "1 46277U 20061F   25355.46394659  .00008072  00000+0  20111-3 0  9995", "line2": "2 46277  97.2199  54.4513 0001327  52.1859 307.9508 15.40492237294587"}}, "geometry": {"type": "Point", "coordinates": [-133.2981124605752, -47.607435220680756]}}, {"type": "Feature", "properties": {"norad_id": 46984, "name": "SENTINEL-6A", "group": "resource", "lat": 12.47944228888445, "lon": 149.34501904378862, "alt_km": 1339.3801320212087, "timestamp": "2025-12-21T16:47:54.386681+00:00", "meta": {"OBJECT_NAME": "SENTINEL-6A", "OBJECT_ID": "2020-086A", "EPOCH": "2025-12-21T11:06:20.831904", "MEAN_MOTION": 12.80930873, "ECCENTRICITY": 0.0007718, "INCLINATION": 66.0395, "RA_OF_ASC_NODE": 144.19, "ARG_OF_PERICENTER": 269.3505, "MEAN_ANOMALY": 90.6626, "EPHEMERIS_TYPE": 0, "CLASSIFICATION_TYPE": "U", "NORAD_CAT_ID": 46984, "ELEMENT_SET_NO": 999, "REV_AT_EPOCH": 23756, "BSTAR": -2.5951e-05, "MEAN_MOTION_DOT": -6.7e-07, "MEAN_MOTION_DDOT": 0}, "tle": {"line1": "1 46984U 20086A   25355.46274111 -.00000067  00000+0 -25951-4 0  9993", "line2": "2 46984  66.0395 144.1900 0007718 269.3505  90.6626 12.80930873237567"}}, "geometry": {"type": "Point", "coordinates": [149.34501904378862, 12.47944228888445]}}, {"type": "Feature", "properties": {"norad_id": 48079, "name": "GAOFEN-12 02", "group": "resource", "lat": -25.93154839486822, "lon": 165.74918018429145, "alt_km": 634.2337963880818, "timestamp": "2025-12-21T16:47:54.386692+00:00", "meta": {"OBJECT_NAME": "GAOFEN-12 02", "OBJECT_ID": "2021-026A", "EPOCH": "2025-12-21T12:37:37.695936", "MEAN_MOTION": 14.80684785, "ECCENTRICITY": 0.00036, "INCLINATION": 97.9855, "RA_OF_ASC_NODE": 349.4902, "ARG_OF_PERICENTER": 83.5033, "MEAN_ANOMALY": 276.6589, "EPHEMERIS_TYPE": 0, "CLASSIFICATION_TYPE": "U", "NORAD_CAT_ID": 48079, "ELEMENT_SET_NO": 999, "REV_AT_EPOCH": 25547, "BSTAR": 5.7332e-05, "MEAN_MOTION_DOT": 3.88e-06, "MEAN_MOTION_DDOT": 0}, "tle": {"line1": "1 48079U 21026A   25355.52613074  .00000388  00000+0  57332-4 0  9999", "line2": "2 48079  97.9855 349.4902 0003600  83.5033 276.6589 14.80684785255472"}}, "geometry": {"type": "Point", "coordinates": [165.74918018429145, -25.93154839486822]}}, {"type": "Feature", "properties": {"norad_id": 48268, "name": "PLEIADES NEO 3", "group": "resource", "lat": -54.38283239996113, "lon": 79.18187450682846, "alt_km": 631.8768302628387, "timestamp": "2025-12-21T16:47:54.386702+00:00", "meta": {"OBJECT_NAME": "PLEIADES NEO 3", "OBJECT_ID": "2021-034A", "EPOCH": "2025-12-21T12:11:04.823808", "MEAN_MOTION": 14.81675509, "ECCENTRICITY": 0.0001398, "INCLINATION": 97.895, "RA_OF_ASC_NODE": 67.8234, "ARG_OF_PERICENTER": 90.7717, "MEAN_ANOMALY": 269.3656, "EPHEMERIS_TYPE": 0, "CLASSIFICATION_TYPE": "U", "NORAD_CAT_ID": 48268, "ELEMENT_SET_NO": 999, "REV_AT_EPOCH": 25134, "BSTAR": 0.00011192, "MEAN_MOTION_DOT": 8.29e-06, "MEAN_MOTION_DDOT": 0}, "tle": {"line1": "1 48268U 21034A   25355.50769472  .00000829  00000+0  11192-3 0  9993", "line2": "2 48268  97.8950  67.8234 0001398  90.7717 269.3656 14.81675509251348"}}, "geometry": {"type": "Point", "coordinates": [79.18187450682846, -54.38283239996113]}}, {"type": "Feature", "properties": {"norad_id": 49070, "name": "PLEIADES NEO 4", "group": "resource", "lat": 54.17826252106158, "lon": -100.90701743899578, "alt_km": 618.2205765943436, "timestamp": "2025-12-21T16:47:54.386712+00:00", "meta": {"OBJECT_NAME": "PLEIADES NEO 4", "OBJECT_ID": "2021-073E", "EPOCH": "2025-12-20T17:32:43.601280", "MEAN_MOTION": 14.81672177, "ECCENTRICITY": 0.00013249, "INCLINATION": 97.8951, "RA_OF_ASC_NODE": 67.0538, "ARG_OF_PERICENTER": 89.6187, "MEAN_ANOMALY": 270.5178, "EPHEMERIS_TYPE": 0, "CLASSIFICATION_TYPE": "U", "NORAD_CAT_ID": 49070, "ELEMENT_SET_NO": 999, "REV_AT_EPOCH": 23494, "BSTAR": -3.6645539e-05, "MEAN_MOTION_DOT": -3.4e-06, "MEAN_MOTION_DDOT": 0}, "tle": {"line1": "1 49070U 21073E   25354.73106020 -.00000340  00000+0 -36646-4 0  9998", "line2": "2 49070  97.8951  67.0538 0001324  89.6187 270.5178 14.81672177234945"}}, "geometry": {"type": "Point", "coordinates": [-100.90701743899578, 54.17826252106158]}}, {"type": "Feature", "properties": {"norad_id": 49260, "name": "LANDSAT 9", "group": "resource", "lat": 68.82658931975166, "lon": 41.80101460195508, "alt_km": 695.1010870216251, "timestamp": "2025-12-21T16:47:54.386722+00:00", "meta": {"OBJECT_NAME": "LANDSAT 9", "OBJECT_ID": "2021-088A", "EPOCH": "2025-12-21T03:17:30.808032", "MEAN_MOTION": 14.57105787, "ECCENTRICITY": 0.0001103, "INCLINATION": 98.2083, "RA_OF_ASC_NODE": 63.1261, "ARG_OF_PERICENTER": 91.6147, "MEAN_ANOMALY": 268.5177, "EPHEMERIS_TYPE": 0, "CLASSIFICATION_TYPE": "U", "NORAD_CAT_ID": 49260, "ELEMENT_SET_NO": 999, "REV_AT_EPOCH": 22507, "BSTAR": 7.8218881e-05, "MEAN_MOTION_DOT": 3.07e-06, "MEAN_MOTION_DDOT": 0}, "tle": {"line1": "1 49260U 21088A   25355.13716213  .00000307  00000+0  78219-4 0  9994", "line2": "2 49260  98.2083  63.1261 0001103  91.6147 268.5177 14.57105787225072"}}, "geometry": {"type": "Point", "coordinates": [41.80101460195508, 68.82658931975166]}}, {"type": "Feature", "properties": {"norad_id": 51444, "name": "CSG-2", "group": "resource", "lat": 6.721927495110807, "lon": -2.177360499491044, "alt_km": 624.6349039580937, "timestamp": "2025-12-21T16:47:54.386731+00:00", "meta": {"OBJECT_NAME": "CSG-2", "OBJECT_ID": "2022-008A", "EPOCH": "2025-12-21T12:46:46.461216", "MEAN_MOTION": 14.82151472, "ECCENTRICITY": 0.0001443, "INCLINATION": 97.8798, "RA_OF_ASC_NODE": 176.7225, "ARG_OF_PERICENTER": 84.3186, "MEAN_ANOMALY": 275.8192, "EPHEMERIS_TYPE": 0, "CLASSIFICATION_TYPE": "U", "NORAD_CAT_ID": 51444, "ELEMENT_SET_NO": 999, "REV_AT_EPOCH": 21027, "BSTAR": 5.5207e-05, "MEAN_MOTION_DOT": 3.87e-06, "MEAN_MOTION_DDOT": 0}, "tle": {"line1": "1 51444U 22008A   25355.53248219  .00000387  00000+0  55207-4 0  9994", "line2": "2 51444  97.8798 176.7225 0001443  84.3186 275.8192 14.82151472210271"}}, "geometry": {"type": "Point", "coordinates": [-2.177360499491044, 6.721927495110807]}}]}